{
  "type": "FeatureCollection",
  "features": [
    {
      "type": "Feature",
      "properties": {
        "stroke": "rgba(240, 19, 12, 1)",
        "stroke-width": 7,
        "stroke-opacity": 1
      },
      "geometry": {
        "type": "LineString",
        "coordinates": [
          [
            -99.2413555,
            46.2088074
          ],
          [
            -104.5207525,
            42.1206901
          ],
          [
            -102.1489544,
            38.5634467
          ],
          [
            -98.7200229,
            36.1516435
          ],
          [
            -94.2583833,
            35.3000511
          ],
          [
            -91.4270053,
            38.099535
          ],
          [
            -94.9855547,
            40.1852366
          ],
          [
            -91.3460029,
            40.9169915
          ],
          [
            -93.8749635,
            44.150313
          ],
          [
            -95.1001873,
            46.5088417
          ],
          [
            -97.6669933,
            46.9621211
          ]
        ]
      }
    }
  ]
}
